[{"OBJECT_NAME":"FALCON EYE 2","OBJECT_ID":"2020-090A","EPOCH":"2026-03-09T02:26:19.073760","MEAN_MOTION":14.84956326,"ECCENTRICITY":0.00011533,"INCLINATION":97.8521,"RA_OF_ASC_NODE":144.2551,"ARG_OF_PERICENTER":93.9066,"MEAN_ANOMALY":266.228,"EPHEMERIS_TYPE":0,"CLASSIFICATION_TYPE":"U","NORAD_CAT_ID":47226,"ELEMENT_SET_NO":999,"REV_AT_EPOCH":28538,"BSTAR":0.0002554448,"MEAN_MOTION_DOT":2.123e-5,"MEAN_MOTION_DDOT":0},{"OBJECT_NAME":"CZ-6A DEB","OBJECT_ID":"2024-140RF","EPOCH":"2026-03-09T00:00:20.621952","MEAN_MOTION":14.59669494,"ECCENTRICITY":0.0127437,"INCLINATION":88.8187,"RA_OF_ASC_NODE":269.4528,"ARG_OF_PERICENTER":270.9127,"MEAN_ANOMALY":87.7486,"EPHEMERIS_TYPE":0,"CLASSIFICATION_TYPE":"U","NORAD_CAT_ID":61161,"ELEMENT_SET_NO":999,"REV_AT_EPOCH":8205,"BSTAR":0.0014244092,"MEAN_MOTION_DOT":7.621e-5,"MEAN_MOTION_DDOT":0}]
